{
  "type": "FeatureCollection",
  "features": [
    {"type": "Feature", "properties": {"name": "Tunney's Pasture", "kind": "otrain", "lines": [1]}, "geometry": {"type": "Point", "coordinates": [-75.73522, 45.40373]}},
    {"type": "Feature", "properties": {"name": "Bayview", "kind": "otrain", "lines": [1, 2]}, "geometry": {"type": "Point", "coordinates": [-75.72199, 45.4093]}},
    {"type": "Feature", "properties": {"name": "Pimisi", "kind": "otrain", "lines": [1]}, "geometry": {"type": "Point", "coordinates": [-75.71351, 45.41366]}},
    {"type": "Feature", "properties": {"name": "Lyon", "kind": "otrain", "lines": [1]}, "geometry": {"type": "Point", "coordinates": [-75.70454, 45.41894]}},
    {"type": "Feature", "properties": {"name": "Parliament", "kind": "otrain", "lines": [1]}, "geometry": {"type": "Point", "coordinates": [-75.69909, 45.42128]}},
    {"type": "Feature", "properties": {"name": "Rideau", "kind": "otrain", "lines": [1]}, "geometry": {"type": "Point", "coordinates": [-75.69146, 45.42632]}},
    {"type": "Feature", "properties": {"name": "uOttawa", "kind": "otrain", "lines": [1]}, "geometry": {"type": "Point", "coordinates": [-75.68236, 45.42057]}},
    {"type": "Feature", "properties": {"name": "Lees", "kind": "otrain", "lines": [1]}, "geometry": {"type": "Point", "coordinates": [-75.67062, 45.41642]}},
    {"type": "Feature", "properties": {"name": "Hurdman", "kind": "otrain", "lines": [1]}, "geometry": {"type": "Point", "coordinates": [-75.66424, 45.41236]}},
    {"type": "Feature", "properties": {"name": "Tremblay", "kind": "otrain", "lines": [1]}, "geometry": {"type": "Point", "coordinates": [-75.65345, 45.41687]}},
    {"type": "Feature", "properties": {"name": "St-Laurent", "kind": "otrain", "lines": [1]}, "geometry": {"type": "Point", "coordinates": [-75.6374, 45.42065]}},
    {"type": "Feature", "properties": {"name": "Cyrville", "kind": "otrain", "lines": [1]}, "geometry": {"type": "Point", "coordinates": [-75.62636, 45.42267]}},
    {"type": "Feature", "properties": {"name": "Blair", "kind": "otrain", "lines": [1]}, "geometry": {"type": "Point", "coordinates": [-75.60841, 45.43104]}},
    {"type": "Feature", "properties": {"name": "Corso Italia", "kind": "otrain", "lines": [2]}, "geometry": {"type": "Point", "coordinates": [-75.71434, 45.40402]}},
    {"type": "Feature", "properties": {"name": "Dow's Lake / Lac Dow", "kind": "otrain", "lines": [2]}, "geometry": {"type": "Point", "coordinates": [-75.70943, 45.39738]}},
    {"type": "Feature", "properties": {"name": "Carleton", "kind": "otrain", "lines": [2]}, "geometry": {"type": "Point", "coordinates": [-75.69592, 45.38559]}},
    {"type": "Feature", "properties": {"name": "Mooney's Bay", "kind": "otrain", "lines": [2]}, "geometry": {"type": "Point", "coordinates": [-75.68521, 45.3769]}},
    {"type": "Feature", "properties": {"name": "Walkley", "kind": "otrain", "lines": [2]}, "geometry": {"type": "Point", "coordinates": [-75.66573, 45.36866]}},
    {"type": "Feature", "properties": {"name": "Greenboro", "kind": "otrain", "lines": [2]}, "geometry": {"type": "Point", "coordinates": [-75.65911, 45.35955]}},
    {"type": "Feature", "properties": {"name": "South Keys", "kind": "otrain", "lines": [2, 4]}, "geometry": {"type": "Point", "coordinates": [-75.6555, 45.35343]}},
    {"type": "Feature", "properties": {"name": "Leitrim", "kind": "otrain", "lines": [2]}, "geometry": {"type": "Point", "coordinates": [-75.63208, 45.31415]}},
    {"type": "Feature", "properties": {"name": "Bowesville", "kind": "otrain", "lines": [2]}, "geometry": {"type": "Point", "coordinates": [-75.63266, 45.29339]}},
    {"type": "Feature", "properties": {"name": "Limebank", "kind": "otrain", "lines": [2]}, "geometry": {"type": "Point", "coordinates": [-75.66652, 45.27752]}},
    {"type": "Feature", "properties": {"name": "Uplands", "kind": "otrain", "lines": [4]}, "geometry": {"type": "Point", "coordinates": [-75.65573, 45.33304]}},
    {"type": "Feature", "properties": {"name": "Airport / Aéroport", "kind": "otrain", "lines": [4]}, "geometry": {"type": "Point", "coordinates": [-75.66878, 45.32359]}},
    {"type": "Feature", "properties": {"name": "Palladium", "kind": "transitway"}, "geometry": {"type": "Point", "coordinates": [-75.92898, 45.2961]}},
    {"type": "Feature", "properties": {"name": "Campeau", "kind": "transitway"}, "geometry": {"type": "Point", "coordinates": [-75.92828, 45.30309]}},
    {"type": "Feature", "properties": {"name": "Maple Grove", "kind": "transitway"}, "geometry": {"type": "Point", "coordinates": [-75.9167, 45.29229]}},
    {"type": "Feature", "properties": {"name": "Didsbury", "kind": "transitway"}, "geometry": {"type": "Point", "coordinates": [-75.91664, 45.30595]}},
    {"type": "Feature", "properties": {"name": "Hazeldean", "kind": "transitway"}, "geometry": {"type": "Point", "coordinates": [-75.90852, 45.28538]}},
    {"type": "Feature", "properties": {"name": "Tallwood", "kind": "transitway"}, "geometry": {"type": "Point", "coordinates": [-75.75674, 45.34133]}},
    {"type": "Feature", "properties": {"name": "Knoxdale", "kind": "transitway"}, "geometry": {"type": "Point", "coordinates": [-75.75297, 45.33469]}},
    {"type": "Feature", "properties": {"name": "Nepean Sportsplex", "kind": "transitway"}, "geometry": {"type": "Point", "coordinates": [-75.74793, 45.32626]}},
    {"type": "Feature", "properties": {"name": "Longfields", "kind": "transitway"}, "geometry": {"type": "Point", "coordinates": [-75.74683, 45.28544]}},
    {"type": "Feature", "properties": {"name": "Strandherd", "kind": "transitway"}, "geometry": {"type": "Point", "coordinates": [-75.74563, 45.2735]}},
    {"type": "Feature", "properties": {"name": "Barrhaven Centre", "kind": "transitway"}, "geometry": {"type": "Point", "coordinates": [-75.7411, 45.26749]}},
    {"type": "Feature", "properties": {"name": "Fallowfield", "kind": "transitway"}, "geometry": {"type": "Point", "coordinates": [-75.7368, 45.2984]}},
    {"type": "Feature", "properties": {"name": "Fallowfield", "kind": "via"}, "geometry": {"type": "Point", "coordinates": [-75.73658, 45.29926]}},
    {"type": "Feature", "properties": {"name": "Ottawa", "kind": "via"}, "geometry": {"type": "Point", "coordinates": [-75.65173, 45.41647]}}
  ]
}
